OBJECT_NAME,OBJECT_ID,EPOCH,MEAN_MOTION,ECCENTRICITY,INCLINATION,RA_OF_ASC_NODE,ARG_OF_PERICENTER,MEAN_ANOMALY,EPHEMERIS_TYPE,CLASSIFICATION_TYPE,NORAD_CAT_ID,ELEMENT_SET_NO,REV_AT_EPOCH,BSTAR,MEAN_MOTION_DOT,MEAN_MOTION_DDOT
LEMUR-2-ROUNDTRIPPER,2025-009DG,2026-06-18T18:10:26.766336,15.03813669,.00055074,97.7255,252.4346,126.2997,233.8738,0,U,62711,999,7786,.50442038E-3,.6878E-4,0
LEMUR-2-MYNAMEISJEFF,2025-009DH,2026-06-18T18:08:08.753568,15.03818635,.00037494,97.7300,252.8149,147.3297,212.8161,0,U,62712,999,7786,.47338804E-3,.645E-4,0
LEMUR-2-LEIA-PHILIP,2025-052AN,2026-06-18T22:34:50.511360,14.97322233,.00027367,97.6836,61.8626,204.2508,155.8586,0,U,63246,999,6893,.51003987E-4,.534E-5,0
LEMUR-2-LIA-MARTIN,2025-052AQ,2026-06-18T22:41:18.388608,14.97812658,.00029939,97.6886,62.3447,154.6413,205.4957,0,U,63248,999,6894,.23793095E-3,.2738E-4,0
LEMUR-2-DELOITTE-1,2025-052BB,2026-06-18T06:05:30.981120,14.97612095,.0003455,97.6922,61.9920,94.8418,265.3198,0,U,63259,999,6885,.32332E-3,.3722E-4,0
LEMUR-2-EMERSONROSE,2025-052BD,2026-06-18T23:05:33.382752,14.99088569,.00017187,97.6880,63.2517,69.2056,290.9351,0,U,63261,999,6900,.23422225E-3,.2786E-4,0
LEMUR-2-MARACHE-FRAN,2025-052BE,2026-06-18T14:28:01.051680,15.00113345,.0005223,97.6937,63.2169,18.0876,342.0533,0,U,63262,999,6897,.33013E-3,.4059E-4,0
LEMUR-2-THEFALCONER,2025-052BG,2026-06-18T22:45:59.093568,14.97396552,.00024274,97.6854,62.2952,27.6603,332.4748,0,U,63264,999,6895,.20825972E-3,.2363E-4,0
LEMUR-2-UNTITLED-SC,2025-061A,2026-06-18T22:33:28.381248,15.13487327,.00169453,97.5637,145.2887,257.7124,102.2210,0,U,63351,999,6785,.19094393E-3,.3361E-4,0
LEMUR-2-ESPERANZA,2025-061B,2026-06-18T22:00:23.491584,15.13579125,.00165379,97.5645,145.3599,257.2672,102.6711,0,U,63352,999,6785,.14102189E-3,.247E-4,0
LEMUR-2-KREMPEL-BRO2,2025-061C,2026-06-18T17:53:00.427776,15.14015502,.0017552,97.5692,145.7247,249.6298,110.3048,0,U,63353,999,6784,.18549643E-3,.3313E-4,0
LEMUR-2-THERMORAPTOR,2025-061D,2026-06-18T22:12:33.927552,15.14096436,.00172669,97.5695,145.9799,247.6830,112.2571,0,U,63354,999,6787,.16274578E-3,.2905E-4,0
LEMUR-2-NEUROSPICY,2025-061E,2026-06-18T21:31:35.186592,15.14211034,.0015059,97.5625,145.5764,251.3644,108.5952,0,U,63355,999,6787,.16856757E-3,.3018E-4,0
LEMUR-2-TILLINFINITY,2025-061F,2026-06-18T22:21:24.905664,15.14797612,.0016452,97.5609,145.9023,238.1314,121.8317,0,U,63356,999,6790,.17102709E-3,.3117E-4,0
LEMUR-2-KREMPEL-BRO1,2025-061G,2026-06-18T09:02:27.314592,15.14599257,.0017049,97.5612,145.2664,242.0323,117.9183,0,U,63357,999,6781,.15392E-3,.2783E-4,0
LEMUR-2-LANGER2SPACE,2025-061H,2026-06-18T17:36:44.125920,15.14298691,.0014987,97.5615,145.4349,250.2947,109.6668,0,U,63358,999,6785,.17915925E-3,.322E-4,0
LEMUR-2-BALTO,2025-052BH,2026-06-18T10:53:52.996704,15.00098869,.0006901,97.6897,63.0474,54.5649,305.6218,0,U,63395,999,6895,.39494E-3,.4868E-4,0
LEMUR-2-KRISH,2025-135AK,2026-06-18T17:54:37.864512,14.96222499,.00017169,97.7756,284.6117,97.9640,262.1776,0,U,64561,999,5415,.36923342E-3,.4107E-4,0
LEMUR-2-HUBBLE-4,2025-135AP,2026-06-18T21:05:18.208608,14.93202377,.00009108,97.7701,283.7640,294.1434,65.9691,0,U,64565,999,5412,.12137909E-3,.1211E-4,0
LEMUR-2-SEJONG-2,2025-135BL,2026-06-18T23:25:52.669056,14.96706456,.00036585,97.7687,284.9847,331.0378,29.0640,0,U,64586,999,5421,.28907013E-3,.3243E-4,0
LEMUR-2-HUBBLE-5,2025-135BT,2026-06-18T21:34:03.981216,14.94139337,.00049478,97.7720,284.4205,347.6565,12.4533,0,U,64840,999,5416,.81988971E-4,.82E-5,0
LEMUR-2-KARENDARRELL,2025-135BU,2026-06-18T18:51:29.039328,15.00129024,.00098013,97.7684,285.9908,195.8683,164.2235,0,U,64841,999,5425,.50089753E-3,.6197E-4,0
LEMUR-2-LUCILLE-ROSE,2025-135BV,2026-06-18T07:01:12.717120,15.00164541,.0011255,97.7766,285.5191,278.7265,81.2683,0,U,65403,999,4880,.3891E-3,.4805E-4,0
LEMUR-2-AFFIE-WAUWIE,2025-248C,2026-06-18T21:17:40.205760,15.27193315,.00072025,45.3929,105.7764,96.8263,263.3445,0,U,66295,999,3485,.51149988E-3,.13619E-3,0
LEMUR-2-DEANANDMAEVE,2025-276N,2026-06-18T23:03:28.215072,15.19750218,.00055201,97.4208,243.4070,8.5807,351.5522,0,U,66678,999,3068,.25114832E-3,.5304E-4,0
LEMUR-2-STAS-GORBUK,2025-276W,2026-06-18T17:05:36.530304,15.19394322,.0004968,97.4243,243.2174,10.2941,349.8395,0,U,66686,999,3064,.20402924E-3,.4251E-4,0
LEMUR-2-TEODOR,2025-276DG,2026-06-18T21:24:02.694240,15.21065013,.00022064,97.4148,243.6324,115.2150,244.9315,0,U,66768,999,3070,.213256E-3,.4669E-4,0
LEMUR-2-LAILA,2025-276DQ,2026-06-18T22:20:50.594496,15.21287334,.00023124,97.4170,243.7931,133.7151,226.4277,0,U,66776,999,3071,.20579906E-3,.4533E-4,0
LEMUR-2-CELIJO-SB-PK,2025-276DW,2026-06-18T18:30:14.956416,14.99992221,.00086834,97.5245,240.4969,128.7901,231.4100,0,U,66781,999,2286,.38602036E-3,.4746E-4,0
